ERS-1                   
1 21574U 91050A   26091.98338761  .00000369  00000+0  13247-3 0  9994
2 21574  98.7861 110.8020 0032851 131.9502 228.4493 14.39467217819084
ARIANE 40 R/B           
1 21610U 91050F   26091.90958206  .00000352  00000+0  11788-3 0  9999
2 21610  98.1963 143.2692 0003311  27.8244 332.3123 14.42910567822345
INTERCOSMOS 25          
1 21819U 91086A   26091.93558662  .00001964  00000+0  37884-3 0  9999
2 21819  82.6001 295.9538 1486406  66.8485 308.2038 12.12079975499501
SL-8 R/B                
1 21876U 92008B   26091.92856411  .00000012  00000+0 -40645-5 0  9994
2 21876  82.9240 250.4866 0035865  70.6862  40.0749 13.75969714712611
SL-8 R/B                
1 21938U 92020B   26091.91860776  .00000048  00000+0  34063-4 0  9999
2 21938  82.9295 136.5137 0027922 230.9652 301.9242 13.75550673704324
USA 81                  
1 21949U 92023A   26091.78165093  .00000208  00000+0  69602-4 0  9994
2 21949  85.0041 118.1139 0001620  68.9041 291.2325 14.32375529 98097
COSMOS 2219             
1 22219U 92076A   26091.93529379 -.00000208  00000+0 -84333-4 0  9991
2 22219  71.0612 329.4787 0017750 172.2057 187.9345 14.14089358721661
SL-16 R/B               
1 22220U 92076B   26091.87489708 -.00000189  00000+0 -70562-4 0  9994
2 22220  70.9989 139.5380 0010823  53.4222 118.0943 14.16863028725114
COSMOS 2221             
1 22236U 92080A   26091.91010836  .00002433  00000+0  21254-3 0  9998
2 22236  82.5008 256.8311 0015643 112.8920 247.3955 14.96301221784269
SL-16 R/B               
1 22285U 92093B   26091.91927017  .00000013  00000+0  31164-4 0  9998
2 22285  71.0225 315.5033 0006604 271.4204  88.6162 14.15455881716449
COSMOS 2228             
1 22286U 92094A   26091.91092590  .00002661  00000+0  22659-3 0  9998
2 22286  82.5195 215.0769 0017098 220.2160 139.7799 14.97314661779538
SL-16 R/B               
1 22566U 93016B   26091.96202768  .00000243  00000+0  14899-3 0  9990
2 22566  71.0074 166.3061 0012356 284.2505  75.7245 14.15306871705466
