CCSDS_OMM_VERS = 2.0
CREATION_DATE  = 
ORIGINATOR     = 

OBJECT_NAME    = ERS-1
OBJECT_ID      = 1991-050A
CENTER_NAME    = EARTH
REF_FRAME      = TEME
TIME_SYSTEM    = UTC
MEAN_ELEMENT_THEORY = SGP/SGP4

EPOCH          = 2026-04-01T23:36:04.689504
MEAN_MOTION    = 14.39467217
ECCENTRICITY   = .00328516
INCLINATION    = 98.7861
RA_OF_ASC_NODE = 110.8020
ARG_OF_PERICENTER = 131.9502
MEAN_ANOMALY   = 228.4493

EPHEMERIS_TYPE = 0
CLASSIFICATION_TYPE = U
NORAD_CAT_ID   = 21574
ELEMENT_SET_NO = 999
REV_AT_EPOCH   = 81908
BSTAR          = .13246762E-3
MEAN_MOTION_DOT = .369E-5
MEAN_MOTION_DDOT = 0

CCSDS_OMM_VERS = 2.0
CREATION_DATE  = 
ORIGINATOR     = 

OBJECT_NAME    = ARIANE 40 R/B
OBJECT_ID      = 1991-050F
CENTER_NAME    = EARTH
REF_FRAME      = TEME
TIME_SYSTEM    = UTC
MEAN_ELEMENT_THEORY = SGP/SGP4

EPOCH          = 2026-04-01T21:49:47.889984
MEAN_MOTION    = 14.42910567
ECCENTRICITY   = .00033113
INCLINATION    = 98.1963
RA_OF_ASC_NODE = 143.2692
ARG_OF_PERICENTER = 27.8244
MEAN_ANOMALY   = 332.3123

EPHEMERIS_TYPE = 0
CLASSIFICATION_TYPE = U
NORAD_CAT_ID   = 21610
ELEMENT_SET_NO = 999
REV_AT_EPOCH   = 82234
BSTAR          = .11787551E-3
MEAN_MOTION_DOT = .352E-5
MEAN_MOTION_DDOT = 0

CCSDS_OMM_VERS = 2.0
CREATION_DATE  = 
ORIGINATOR     = 

OBJECT_NAME    = INTERCOSMOS 25
OBJECT_ID      = 1991-086A
CENTER_NAME    = EARTH
REF_FRAME      = TEME
TIME_SYSTEM    = UTC
MEAN_ELEMENT_THEORY = SGP/SGP4

EPOCH          = 2026-04-01T22:27:14.683968
MEAN_MOTION    = 12.12079975
ECCENTRICITY   = .14864064
INCLINATION    = 82.6001
RA_OF_ASC_NODE = 295.9538
ARG_OF_PERICENTER = 66.8485
MEAN_ANOMALY   = 308.2038

EPHEMERIS_TYPE = 0
CLASSIFICATION_TYPE = U
NORAD_CAT_ID   = 21819
ELEMENT_SET_NO = 999
REV_AT_EPOCH   = 49950
BSTAR          = .37884198E-3
MEAN_MOTION_DOT = .1964E-4
MEAN_MOTION_DDOT = 0

CCSDS_OMM_VERS = 2.0
CREATION_DATE  = 
ORIGINATOR     = 

OBJECT_NAME    = SL-8 R/B
OBJECT_ID      = 1992-008B
CENTER_NAME    = EARTH
REF_FRAME      = TEME
TIME_SYSTEM    = UTC
MEAN_ELEMENT_THEORY = SGP/SGP4

EPOCH          = 2026-04-01T22:17:07.939104
MEAN_MOTION    = 13.75969714
ECCENTRICITY   = .00358655
INCLINATION    = 82.9240
RA_OF_ASC_NODE = 250.4866
ARG_OF_PERICENTER = 70.6862
MEAN_ANOMALY   = 40.0749

EPHEMERIS_TYPE = 0
CLASSIFICATION_TYPE = U
NORAD_CAT_ID   = 21876
ELEMENT_SET_NO = 999
REV_AT_EPOCH   = 71261
BSTAR          = -.4064457E-5
MEAN_MOTION_DOT = .12E-6
MEAN_MOTION_DDOT = 0

CCSDS_OMM_VERS = 2.0
CREATION_DATE  = 
ORIGINATOR     = 

OBJECT_NAME    = SL-8 R/B
OBJECT_ID      = 1992-020B
CENTER_NAME    = EARTH
REF_FRAME      = TEME
TIME_SYSTEM    = UTC
MEAN_ELEMENT_THEORY = SGP/SGP4

EPOCH          = 2026-04-01T22:02:47.710464
MEAN_MOTION    = 13.75550673
ECCENTRICITY   = .00279225
INCLINATION    = 82.9295
RA_OF_ASC_NODE = 136.5137
ARG_OF_PERICENTER = 230.9652
MEAN_ANOMALY   = 301.9242

EPHEMERIS_TYPE = 0
CLASSIFICATION_TYPE = U
NORAD_CAT_ID   = 21938
ELEMENT_SET_NO = 999
REV_AT_EPOCH   = 70432
BSTAR          = .34063123E-4
MEAN_MOTION_DOT = .48E-6
MEAN_MOTION_DDOT = 0

CCSDS_OMM_VERS = 2.0
CREATION_DATE  = 
ORIGINATOR     = 

OBJECT_NAME    = USA 81
OBJECT_ID      = 1992-023A
CENTER_NAME    = EARTH
REF_FRAME      = TEME
TIME_SYSTEM    = UTC
MEAN_ELEMENT_THEORY = SGP/SGP4

EPOCH          = 2026-04-01T18:45:34.640352
MEAN_MOTION    = 14.32375529
ECCENTRICITY   = .00016203
INCLINATION    = 85.0041
RA_OF_ASC_NODE = 118.1139
ARG_OF_PERICENTER = 68.9041
MEAN_ANOMALY   = 291.2325

EPHEMERIS_TYPE = 0
CLASSIFICATION_TYPE = U
NORAD_CAT_ID   = 21949
ELEMENT_SET_NO = 999
REV_AT_EPOCH   = 9809
BSTAR          = .69602114E-4
MEAN_MOTION_DOT = .208E-5
MEAN_MOTION_DDOT = 0

CCSDS_OMM_VERS = 2.0
CREATION_DATE  = 
ORIGINATOR     = 

OBJECT_NAME    = COSMOS 2219
OBJECT_ID      = 1992-076A
CENTER_NAME    = EARTH
REF_FRAME      = TEME
TIME_SYSTEM    = UTC
MEAN_ELEMENT_THEORY = SGP/SGP4

EPOCH          = 2026-04-01T22:26:49.383456
MEAN_MOTION    = 14.14089358
ECCENTRICITY   = .00177503
INCLINATION    = 71.0612
RA_OF_ASC_NODE = 329.4787
ARG_OF_PERICENTER = 172.2057
MEAN_ANOMALY   = 187.9345

EPHEMERIS_TYPE = 0
CLASSIFICATION_TYPE = U
NORAD_CAT_ID   = 22219
ELEMENT_SET_NO = 999
REV_AT_EPOCH   = 72166
BSTAR          = -.84333186E-4
MEAN_MOTION_DOT = -.208E-5
MEAN_MOTION_DDOT = 0

CCSDS_OMM_VERS = 2.0
CREATION_DATE  = 
ORIGINATOR     = 

OBJECT_NAME    = SL-16 R/B
OBJECT_ID      = 1992-076B
CENTER_NAME    = EARTH
REF_FRAME      = TEME
TIME_SYSTEM    = UTC
MEAN_ELEMENT_THEORY = SGP/SGP4

EPOCH          = 2026-04-01T20:59:51.107712
MEAN_MOTION    = 14.16863028
ECCENTRICITY   = .00108231
INCLINATION    = 70.9989
RA_OF_ASC_NODE = 139.5380
ARG_OF_PERICENTER = 53.4222
MEAN_ANOMALY   = 118.0943

EPHEMERIS_TYPE = 0
CLASSIFICATION_TYPE = U
NORAD_CAT_ID   = 22220
ELEMENT_SET_NO = 999
REV_AT_EPOCH   = 72511
BSTAR          = -.70562221E-4
MEAN_MOTION_DOT = -.189E-5
MEAN_MOTION_DDOT = 0

CCSDS_OMM_VERS = 2.0
CREATION_DATE  = 
ORIGINATOR     = 

OBJECT_NAME    = COSMOS 2221
OBJECT_ID      = 1992-080A
CENTER_NAME    = EARTH
REF_FRAME      = TEME
TIME_SYSTEM    = UTC
MEAN_ELEMENT_THEORY = SGP/SGP4

EPOCH          = 2026-04-01T21:50:33.362304
MEAN_MOTION    = 14.96301221
ECCENTRICITY   = .00156439
INCLINATION    = 82.5008
RA_OF_ASC_NODE = 256.8311
ARG_OF_PERICENTER = 112.8920
MEAN_ANOMALY   = 247.3955

EPHEMERIS_TYPE = 0
CLASSIFICATION_TYPE = U
NORAD_CAT_ID   = 22236
ELEMENT_SET_NO = 999
REV_AT_EPOCH   = 78426
BSTAR          = .21253819E-3
MEAN_MOTION_DOT = .2433E-4
MEAN_MOTION_DDOT = 0

CCSDS_OMM_VERS = 2.0
CREATION_DATE  = 
ORIGINATOR     = 

OBJECT_NAME    = SL-16 R/B
OBJECT_ID      = 1992-093B
CENTER_NAME    = EARTH
REF_FRAME      = TEME
TIME_SYSTEM    = UTC
MEAN_ELEMENT_THEORY = SGP/SGP4

EPOCH          = 2026-04-01T22:03:44.942688
MEAN_MOTION    = 14.15455881
ECCENTRICITY   = .00066044
INCLINATION    = 71.0225
RA_OF_ASC_NODE = 315.5033
ARG_OF_PERICENTER = 271.4204
MEAN_ANOMALY   = 88.6162

EPHEMERIS_TYPE = 0
CLASSIFICATION_TYPE = U
NORAD_CAT_ID   = 22285
ELEMENT_SET_NO = 999
REV_AT_EPOCH   = 71644
BSTAR          = .31163617E-4
MEAN_MOTION_DOT = .13E-6
MEAN_MOTION_DDOT = 0

CCSDS_OMM_VERS = 2.0
CREATION_DATE  = 
ORIGINATOR     = 

OBJECT_NAME    = COSMOS 2228
OBJECT_ID      = 1992-094A
CENTER_NAME    = EARTH
REF_FRAME      = TEME
TIME_SYSTEM    = UTC
MEAN_ELEMENT_THEORY = SGP/SGP4

EPOCH          = 2026-04-01T21:51:43.997760
MEAN_MOTION    = 14.97314661
ECCENTRICITY   = .00170982
INCLINATION    = 82.5195
RA_OF_ASC_NODE = 215.0769
ARG_OF_PERICENTER = 220.2160
MEAN_ANOMALY   = 139.7799

EPHEMERIS_TYPE = 0
CLASSIFICATION_TYPE = U
NORAD_CAT_ID   = 22286
ELEMENT_SET_NO = 999
REV_AT_EPOCH   = 77953
BSTAR          = .22658726E-3
MEAN_MOTION_DOT = .2661E-4
MEAN_MOTION_DDOT = 0

CCSDS_OMM_VERS = 2.0
CREATION_DATE  = 
ORIGINATOR     = 

OBJECT_NAME    = SL-16 R/B
OBJECT_ID      = 1993-016B
CENTER_NAME    = EARTH
REF_FRAME      = TEME
TIME_SYSTEM    = UTC
MEAN_ELEMENT_THEORY = SGP/SGP4

EPOCH          = 2026-04-01T23:05:19.191552
MEAN_MOTION    = 14.15306871
ECCENTRICITY   = .00123564
INCLINATION    = 71.0074
RA_OF_ASC_NODE = 166.3061
ARG_OF_PERICENTER = 284.2505
MEAN_ANOMALY   = 75.7245

EPHEMERIS_TYPE = 0
CLASSIFICATION_TYPE = U
NORAD_CAT_ID   = 22566
ELEMENT_SET_NO = 999
REV_AT_EPOCH   = 70546
BSTAR          = .14898822E-3
MEAN_MOTION_DOT = .243E-5
MEAN_MOTION_DDOT = 0

